ONEWEB-0525             
1 54143U 22138AG  23263.22814201  .00000027  00000+0  35803-4 0  9990
2 54143  87.9254 144.1841 0002122  83.0387 277.0987 13.19725032 45678
ONEWEB-0526             
1 54144U 22138AH  23263.41292250 -.00000397  00000+0 -10239-2 0  9992
2 54144  87.9252 144.1479 0001973  75.8130 284.3222 13.19725868 45672
ONEWEB-0529             
1 54145U 22138AJ  23263.18865638  .00000161  00000+0  36917-3 0  9992
2 54145  87.9251 144.1909 0002229  80.9800 279.1585 13.19726126 45667
ONEWEB-0531             
1 54146U 22138AK  23263.10702987  .00000035  00000+0  53666-4 0  9993
2 54146  87.9214 113.7059 0001623  44.0236 316.1026 13.20768857 48031
ONEWEB-0535             
1 54147U 22138AL  23263.22182723  .00000033  00000+0  50325-4 0  9994
2 54147  87.9251 144.1853 0001525  71.9899 288.1400 13.19724326 45681
ONEWEB-0536             
1 54148U 22138AM  23263.09440772  .00000148  00000+0  33180-3 0  9997
2 54148  87.9215 113.7580 0000806  47.4226 312.6975 13.20772940 48022
GSLV R/B                
1 54149U 22138AN  23262.68778968  .00002785  00000+0  29275-3 0  9992
2 54149  87.3768 107.3478 0024923 166.1448 194.0469 14.88863673 49363
ONEWEB-0527             
1 54642U 22166A   23262.78329240  .00000022  00000+0  21825-4 0  9993
2 54642  87.9148  83.3990 0001855  82.8783 277.2561 13.21827055 39698
